CCSDS_OMM_VERS = 2.0
CREATION_DATE  = 
ORIGINATOR     = 

OBJECT_NAME    = ATLAS CENTAUR 2
OBJECT_ID      = 1963-047A
CENTER_NAME    = EARTH
REF_FRAME      = TEME
TIME_SYSTEM    = UTC
MEAN_ELEMENT_THEORY = SGP/SGP4

EPOCH          = 2025-11-13T12:26:09.233088
MEAN_MOTION    = 14.11487725
ECCENTRICITY   = .05497602
INCLINATION    = 30.3511
RA_OF_ASC_NODE = 124.6457
ARG_OF_PERICENTER = 136.8139
MEAN_ANOMALY   = 227.6939

EPHEMERIS_TYPE = 0
CLASSIFICATION_TYPE = U
NORAD_CAT_ID   = 694
ELEMENT_SET_NO = 999
REV_AT_EPOCH   = 11519
BSTAR          = .98330825E-3
MEAN_MOTION_DOT = .8058E-4
MEAN_MOTION_DDOT = 0

CCSDS_OMM_VERS = 2.0
CREATION_DATE  = 
ORIGINATOR     = 

OBJECT_NAME    = THOR AGENA D R/B
OBJECT_ID      = 1964-002A
CENTER_NAME    = EARTH
REF_FRAME      = TEME
TIME_SYSTEM    = UTC
MEAN_ELEMENT_THEORY = SGP/SGP4

EPOCH          = 2025-11-13T11:39:29.479104
MEAN_MOTION    = 14.33935151
ECCENTRICITY   = .00320787
INCLINATION    = 99.1223
RA_OF_ASC_NODE = 319.5216
ARG_OF_PERICENTER = 235.9161
MEAN_ANOMALY   = 123.8977

EPHEMERIS_TYPE = 0
CLASSIFICATION_TYPE = U
NORAD_CAT_ID   = 733
ELEMENT_SET_NO = 999
REV_AT_EPOCH   = 22164
BSTAR          = .21916082E-3
MEAN_MOTION_DOT = .565E-5
MEAN_MOTION_DDOT = 0

CCSDS_OMM_VERS = 2.0
CREATION_DATE  = 
ORIGINATOR     = 

OBJECT_NAME    = SL-3 R/B
OBJECT_ID      = 1964-053B
CENTER_NAME    = EARTH
REF_FRAME      = TEME
TIME_SYSTEM    = UTC
MEAN_ELEMENT_THEORY = SGP/SGP4

EPOCH          = 2025-11-13T10:00:43.475904
MEAN_MOTION    = 14.61229180
ECCENTRICITY   = .00711228
INCLINATION    = 65.0770
RA_OF_ASC_NODE = 312.0827
ARG_OF_PERICENTER = 330.2495
MEAN_ANOMALY   = 29.4568

EPHEMERIS_TYPE = 0
CLASSIFICATION_TYPE = U
NORAD_CAT_ID   = 877
ELEMENT_SET_NO = 999
REV_AT_EPOCH   = 24980
BSTAR          = .22648354E-3
MEAN_MOTION_DOT = .1036E-4
MEAN_MOTION_DDOT = 0

CCSDS_OMM_VERS = 2.0
CREATION_DATE  = 
ORIGINATOR     = 

OBJECT_NAME    = SL-8 R/B
OBJECT_ID      = 1967-045B
CENTER_NAME    = EARTH
REF_FRAME      = TEME
TIME_SYSTEM    = UTC
MEAN_ELEMENT_THEORY = SGP/SGP4

EPOCH          = 2025-11-13T10:46:10.303968
MEAN_MOTION    = 14.45505036
ECCENTRICITY   = .00654002
INCLINATION    = 74.0111
RA_OF_ASC_NODE = 205.1547
ARG_OF_PERICENTER = 240.9427
MEAN_ANOMALY   = 118.5170

EPHEMERIS_TYPE = 0
CLASSIFICATION_TYPE = U
NORAD_CAT_ID   = 2802
ELEMENT_SET_NO = 999
REV_AT_EPOCH   = 7222
BSTAR          = .23570445E-3
MEAN_MOTION_DOT = .824E-5
MEAN_MOTION_DDOT = 0

CCSDS_OMM_VERS = 2.0
CREATION_DATE  = 
ORIGINATOR     = 

OBJECT_NAME    = SL-8 R/B
OBJECT_ID      = 1968-040B
CENTER_NAME    = EARTH
REF_FRAME      = TEME
TIME_SYSTEM    = UTC
MEAN_ELEMENT_THEORY = SGP/SGP4

EPOCH          = 2025-11-13T14:34:47.125632
MEAN_MOTION    = 15.02262351
ECCENTRICITY   = .00236124
INCLINATION    = 74.0314
RA_OF_ASC_NODE = 190.7033
ARG_OF_PERICENTER = 40.2630
MEAN_ANOMALY   = 320.0301

EPHEMERIS_TYPE = 0
CLASSIFICATION_TYPE = U
NORAD_CAT_ID   = 3230
ELEMENT_SET_NO = 999
REV_AT_EPOCH   = 7257
BSTAR          = .74452538E-3
MEAN_MOTION_DOT = .9858E-4
MEAN_MOTION_DDOT = 0

CCSDS_OMM_VERS = 2.0
CREATION_DATE  = 
ORIGINATOR     = 

OBJECT_NAME    = OAO 2
OBJECT_ID      = 1968-110A
CENTER_NAME    = EARTH
REF_FRAME      = TEME
TIME_SYSTEM    = UTC
MEAN_ELEMENT_THEORY = SGP/SGP4

EPOCH          = 2025-11-12T23:36:27.356544
MEAN_MOTION    = 14.47217190
ECCENTRICITY   = .00057912
INCLINATION    = 34.9922
RA_OF_ASC_NODE = 196.7769
ARG_OF_PERICENTER = 334.2782
MEAN_ANOMALY   = 25.7620

EPHEMERIS_TYPE = 0
CLASSIFICATION_TYPE = U
NORAD_CAT_ID   = 3597
ELEMENT_SET_NO = 999
REV_AT_EPOCH   = 218
BSTAR          = .18173013E-3
MEAN_MOTION_DOT = .654E-5
MEAN_MOTION_DDOT = 0

CCSDS_OMM_VERS = 2.0
CREATION_DATE  = 
ORIGINATOR     = 

OBJECT_NAME    = ISIS 1
OBJECT_ID      = 1969-009A
CENTER_NAME    = EARTH
REF_FRAME      = TEME
TIME_SYSTEM    = UTC
MEAN_ELEMENT_THEORY = SGP/SGP4

EPOCH          = 2025-11-13T14:05:51.994176
MEAN_MOTION    = 11.30338512
ECCENTRICITY   = .17074132
INCLINATION    = 88.4512
RA_OF_ASC_NODE = 167.9840
ARG_OF_PERICENTER = 323.6116
MEAN_ANOMALY   = 25.9808

EPHEMERIS_TYPE = 0
CLASSIFICATION_TYPE = U
NORAD_CAT_ID   = 3669
ELEMENT_SET_NO = 999
REV_AT_EPOCH   = 33541
BSTAR          = .26697098E-3
MEAN_MOTION_DOT = .372E-5
MEAN_MOTION_DDOT = 0

CCSDS_OMM_VERS = 2.0
CREATION_DATE  = 
ORIGINATOR     = 

OBJECT_NAME    = SERT 2
OBJECT_ID      = 1970-009A
CENTER_NAME    = EARTH
REF_FRAME      = TEME
TIME_SYSTEM    = UTC
MEAN_ELEMENT_THEORY = SGP/SGP4

EPOCH          = 2025-11-13T14:17:59.366400
MEAN_MOTION    = 13.58712201
ECCENTRICITY   = .00056729
INCLINATION    = 99.2601
RA_OF_ASC_NODE = 262.1290
ARG_OF_PERICENTER = 98.5853
MEAN_ANOMALY   = 74.5636

EPHEMERIS_TYPE = 0
CLASSIFICATION_TYPE = U
NORAD_CAT_ID   = 4327
ELEMENT_SET_NO = 999
REV_AT_EPOCH   = 76412
BSTAR          = .16278936E-3
MEAN_MOTION_DOT = .78E-6
MEAN_MOTION_DDOT = 0

CCSDS_OMM_VERS = 2.0
CREATION_DATE  = 
ORIGINATOR     = 

OBJECT_NAME    = SL-3 R/B
OBJECT_ID      = 1971-028B
CENTER_NAME    = EARTH
REF_FRAME      = TEME
TIME_SYSTEM    = UTC
MEAN_ELEMENT_THEORY = SGP/SGP4

EPOCH          = 2025-11-13T14:59:07.823040
MEAN_MOTION    = 15.52487091
ECCENTRICITY   = .00213385
INCLINATION    = 81.2401
RA_OF_ASC_NODE = 194.3790
ARG_OF_PERICENTER = 347.4199
MEAN_ANOMALY   = 12.6513

EPHEMERIS_TYPE = 0
CLASSIFICATION_TYPE = U
NORAD_CAT_ID   = 5118
ELEMENT_SET_NO = 999
REV_AT_EPOCH   = 97061
BSTAR          = .80342001E-3
MEAN_MOTION_DOT = .49904E-3
MEAN_MOTION_DDOT = 0

CCSDS_OMM_VERS = 2.0
CREATION_DATE  = 
ORIGINATOR     = 

OBJECT_NAME    = ASTEX 1
OBJECT_ID      = 1971-089A
CENTER_NAME    = EARTH
REF_FRAME      = TEME
TIME_SYSTEM    = UTC
MEAN_ELEMENT_THEORY = SGP/SGP4

EPOCH          = 2025-11-13T10:58:14.018880
MEAN_MOTION    = 14.50589363
ECCENTRICITY   = .00176736
INCLINATION    = 92.7122
RA_OF_ASC_NODE = 114.1491
ARG_OF_PERICENTER = 114.0250
MEAN_ANOMALY   = 246.2808

EPHEMERIS_TYPE = 0
CLASSIFICATION_TYPE = U
NORAD_CAT_ID   = 5560
ELEMENT_SET_NO = 999
REV_AT_EPOCH   = 84545
BSTAR          = .38753945E-3
MEAN_MOTION_DOT = .1521E-4
MEAN_MOTION_DDOT = 0

CCSDS_OMM_VERS = 2.0
CREATION_DATE  = 
ORIGINATOR     = 

OBJECT_NAME    = SL-8 R/B
OBJECT_ID      = 1971-119B
CENTER_NAME    = EARTH
REF_FRAME      = TEME
TIME_SYSTEM    = UTC
MEAN_ELEMENT_THEORY = SGP/SGP4

EPOCH          = 2025-11-13T08:16:36.528672
MEAN_MOTION    = 14.35005299
ECCENTRICITY   = .05609652
INCLINATION    = 73.8893
RA_OF_ASC_NODE = 32.7312
ARG_OF_PERICENTER = 22.9809
MEAN_ANOMALY   = 339.5406

EPHEMERIS_TYPE = 0
CLASSIFICATION_TYPE = U
NORAD_CAT_ID   = 5730
ELEMENT_SET_NO = 999
REV_AT_EPOCH   = 63878
BSTAR          = .8313405E-3
MEAN_MOTION_DOT = .15733E-3
MEAN_MOTION_DDOT = 0

CCSDS_OMM_VERS = 2.0
CREATION_DATE  = 
ORIGINATOR     = 

OBJECT_NAME    = OAO 3 (COPERNICUS)
OBJECT_ID      = 1972-065A
CENTER_NAME    = EARTH
REF_FRAME      = TEME
TIME_SYSTEM    = UTC
MEAN_ELEMENT_THEORY = SGP/SGP4

EPOCH          = 2025-11-13T11:51:03.107808
MEAN_MOTION    = 14.59869962
ECCENTRICITY   = .00073163
INCLINATION    = 35.0056
RA_OF_ASC_NODE = 239.2654
ARG_OF_PERICENTER = 287.4906
MEAN_ANOMALY   = 239.3122

EPHEMERIS_TYPE = 0
CLASSIFICATION_TYPE = U
NORAD_CAT_ID   = 6153
ELEMENT_SET_NO = 999
REV_AT_EPOCH   = 82920
BSTAR          = .21205851E-3
MEAN_MOTION_DOT = .1009E-4
MEAN_MOTION_DDOT = 0

