ATLAS CENTAUR 2         
1 00694U 63047A   25317.51816242  .00008058  00000+0  98331-3 0  9993
2 00694  30.3511 124.6457 0549760 136.8139 227.6939 14.11487725115190
THOR AGENA D R/B        
1 00733U 64002A   25317.48575786  .00000565  00000+0  21916-3 0  9990
2 00733  99.1223 319.5216 0032078 235.9161 123.8977 14.33935151221642
SL-3 R/B                
1 00877U 64053B   25317.41716986  .00001036  00000+0  22648-3 0  9994
2 00877  65.0770 312.0827 0071122 330.2495  29.4568 14.61229180249802
SL-8 R/B                
1 02802U 67045B   25317.44873037  .00000824  00000+0  23570-3 0  9991
2 02802  74.0111 205.1547 0065400 240.9427 118.5170 14.45505036 72224
SL-8 R/B                
1 03230U 68040B   25317.60748988  .00009858  00000+0  74453-3 0  9999
2 03230  74.0314 190.7033 0023612  40.2630 320.0301 15.02262351 72578
OAO 2                   
1 03597U 68110A   25316.98364996  .00000654  00000+0  18173-3 0  9998
2 03597  34.9922 196.7769 0005791 334.2782  25.7620 14.47217190  2180
ISIS 1                  
1 03669U 69009A   25317.58740734  .00000372  00000+0  26697-3 0  9998
2 03669  88.4512 167.9840 1707413 323.6116  25.9808 11.30338512335419
SERT 2                  
1 04327U 70009A   25317.59582600  .00000078  00000+0  16279-3 0  9997
2 04327  99.2601 262.1290 0005672  98.5853  74.5636 13.58712201764126
SL-3 R/B                
1 05118U 71028B   25317.62439610  .00049904  00000+0  80342-3 0  9997
2 05118  81.2401 194.3790 0021338 347.4199  12.6513 15.52487091970613
ASTEX 1                 
1 05560U 71089A   25317.45710670  .00001521  00000+0  38754-3 0  9997
2 05560  92.7122 114.1491 0017673 114.0250 246.2808 14.50589363845459
SL-8 R/B                
1 05730U 71119B   25317.34486723  .00015733  00000+0  83134-3 0  9999
2 05730  73.8893  32.7312 0560965  22.9809 339.5406 14.35005299638784
OAO 3 (COPERNICUS)      
1 06153U 72065A   25317.49378597  .00001009  00000+0  21206-3 0  9998
2 06153  35.0056 239.2654 0007316 287.4906 239.3122 14.59869962829202
